{
    "links": {
        "self": "http://www.neowsapp.com/rest/v1/neo/3324252?api_key=iIulBulltgU6a56xZRHN4H3l9WmuAYTsLGpBGhQ2"
    },
    "id": "3324252",
    "neo_reference_id": "3324252",
    "name": "(2006 DR14)",
    "designation": "2006 DR14",
    "nasa_jpl_url": "http://ssd.jpl.nasa.gov/sbdb.cgi?sstr=3324252",
    "absolute_magnitude_h": 26.1,
    "estimated_diameter": {
        "kilometers": {
            "estimated_diameter_min": 0.0160160338,
            "estimated_diameter_max": 0.0358129403
        },
        "meters": {
            "estimated_diameter_min": 16.0160337979,
            "estimated_diameter_max": 35.8129403019
        },
        "miles": {
            "estimated_diameter_min": 0.0099518989,
            "estimated_diameter_max": 0.0222531225
        },
        "feet": {
            "estimated_diameter_min": 52.5460443254,
            "estimated_diameter_max": 117.4965270602
        }
    },
    "is_potentially_hazardous_asteroid": false,
    "close_approach_data": [
        {
            "close_approach_date": "2006-02-23",
            "close_approach_date_full": "2006-Feb-23 02:48",
            "epoch_date_close_approach": 1140662880000,
            "relative_velocity": {
                "kilometers_per_second": "12.9373918812",
                "kilometers_per_hour": "46574.6107723049",
                "miles_per_hour": "28939.6518990469"
            },
            "miss_distance": {
                "astronomical": "0.0077504019",
                "lunar": "3.0149063391",
                "kilometers": "1159443.615883953",
                "miles": "720444.8554384314"
            },
            "orbiting_body": "Earth"
        }
    ],
    "orbital_data": {
        "orbit_id": "7",
        "orbit_determination_date": "2017-04-06 09:09:03",
        "first_observation_date": "2006-02-24",
        "last_observation_date": "2006-02-26",
        "data_arc_in_days": 2,
        "observations_used": 41,
        "orbit_uncertainty": "7",
        "minimum_orbit_intersection": ".0113934",
        "jupiter_tisserand_invariant": "3.132",
        "epoch_osculation": "2459000.5",
        "eccentricity": ".6571375418769719",
        "semi_major_axis": "2.482422249406524",
        "inclination": "5.897315675931847",
        "ascending_node_longitude": "333.1629030741991",
        "orbital_period": "1428.604156916733",
        "perihelion_distance": ".8511293945308176",
        "perihelion_argument": "136.8535466898962",
        "aphelion_distance": "4.113715104282231",
        "perihelion_time": "2459500.787118141433",
        "mean_anomaly": "233.9305344598594",
        "mean_motion": ".2519942268521502",
        "equinox": "J2000",
        "orbit_class": {
            "orbit_class_type": "APO",
            "orbit_class_description": "Near-Earth asteroid orbits which cross the Earth’s orbit similar to that of 1862 Apollo",
            "orbit_class_range": "a (semi-major axis) > 1.0 AU; q (perihelion) < 1.017 AU"
        }
    },
    "is_sentry_object": false
}